{"type": "FeatureCollection", "features": [ {"type": "Feature", "properties": {"norad_id": 66840, "name": "STARLINK-35837", "group": "last-30-days", "lat": -49.035881736995634, "lon": 16.789243383383024, "alt_km": 413.9116149234487, "timestamp": "2025-12-22T08:58:19.047746+00:00", "meta": {"OBJECT_NAME": "STARLINK-35837", "OBJECT_ID": "2025-280V", "EPOCH": "2025-12-22T04:00:01.998720", "MEAN_MOTION": 15.52493578, "ECCENTRICITY": 0.0003311, "INCLINATION": 70, "RA_OF_ASC_NODE": 172.5514, "ARG_OF_PERICENTER": 272.4747, "MEAN_ANOMALY": 243.5786, "EPHEMERIS_TYPE": 0, "CLASSIFICATION_TYPE": "U", "NORAD_CAT_ID": 66840, "ELEMENT_SET_NO": 999, "REV_AT_EPOCH": 441, "BSTAR": 0.0009532, "MEAN_MOTION_DOT": 0.00058856, "MEAN_MOTION_DDOT": 0}, "tle": {"line1": "1 66840U 25280V   25356.16668980  .00058856  00000+0  95320-3 0  9999", "line2": "2 66840  70.0000 172.5514 0003311 272.4747 243.5786 15.52493578  4412"}}, "geometry": {"type": "Point", "coordinates": [16.789243383383024, -49.035881736995634]}}, {"type": "Feature", "properties": {"norad_id": 66841, "name": "STARLINK-35715", "group": "last-30-days", "lat": -50.75000861983963, "lon": 18.456511247576728, "alt_km": 413.8911168777795, "timestamp": "2025-12-22T08:58:19.047755+00:00", "meta": {"OBJECT_NAME": "STARLINK-35715", "OBJECT_ID": "2025-280W", "EPOCH": "2025-12-22T04:00:01.998720", "MEAN_MOTION": 15.52560673, "ECCENTRICITY": 0.0003447, "INCLINATION": 70, "RA_OF_ASC_NODE": 172.5493, "ARG_OF_PERICENTER": 273.1554, "MEAN_ANOMALY": 244.9055, "EPHEMERIS_TYPE": 0, "CLASSIFICATION_TYPE": "U", "NORAD_CAT_ID": 66841, "ELEMENT_SET_NO": 999, "REV_AT_EPOCH": 441, "BSTAR": -0.0022584, "MEAN_MOTION_DOT": -0.00136952, "MEAN_MOTION_DDOT": 0}, "tle": {"line1": "1 66841U 25280W   25356.16668980 -.00136952  00000+0 -22584-2 0  9997", "line2": "2 66841  70.0000 172.5493 0003447 273.1554 244.9055 15.52560673  4418"}}, "geometry": {"type": "Point", "coordinates": [18.456511247576728, -50.75000861983963]}}, {"type": "Feature", "properties": {"norad_id": 66842, "name": "STARLINK-35769", "group": "last-30-days", "lat": -52.3420630997649, "lon": 20.14270911870953, "alt_km": 414.03264341355407, "timestamp": "2025-12-22T08:58:19.047765+00:00", "meta": {"OBJECT_NAME": "STARLINK-35769", "OBJECT_ID": "2025-280X", "EPOCH": "2025-12-22T04:00:01.998720", "MEAN_MOTION": 15.52556579, "ECCENTRICITY": 0.0003248, "INCLINATION": 70, "RA_OF_ASC_NODE": 172.5472, "ARG_OF_PERICENTER": 274.5928, "MEAN_ANOMALY": 245.3788, "EPHEMERIS_TYPE": 0, "CLASSIFICATION_TYPE": "U", "NORAD_CAT_ID": 66842, "ELEMENT_SET_NO": 999, "REV_AT_EPOCH": 441, "BSTAR": -0.002138, "MEAN_MOTION_DOT": -0.00129751, "MEAN_MOTION_DDOT": 0}, "tle": {"line1": "1 66842U 25280X   25356.16668980 -.00129751  00000+0 -21380-2 0  9990", "line2": "2 66842  70.0000 172.5472 0003248 274.5928 245.3788 15.52556579  4413"}}, "geometry": {"type": "Point", "coordinates": [20.14270911870953, -52.3420630997649]}}, {"type": "Feature", "properties": {"norad_id": 66843, "name": "STARLINK-35997", "group": "last-30-days", "lat": -55.460667256248186, "lon": 23.924240903798545, "alt_km": 413.8720095076742, "timestamp": "2025-12-22T08:58:19.047776+00:00", "meta": {"OBJECT_NAME": "STARLINK-35997", "OBJECT_ID": "2025-280Y", "EPOCH": "2025-12-22T04:00:01.998720", "MEAN_MOTION": 15.5255775, "ECCENTRICITY": 0.0003424, "INCLINATION": 70.0002, "RA_OF_ASC_NODE": 172.5416, "ARG_OF_PERICENTER": 272.3891, "MEAN_ANOMALY": 251.4204, "EPHEMERIS_TYPE": 0, "CLASSIFICATION_TYPE": "U", "NORAD_CAT_ID": 66843, "ELEMENT_SET_NO": 999, "REV_AT_EPOCH": 441, "BSTAR": -0.0021759, "MEAN_MOTION_DOT": -0.00132021, "MEAN_MOTION_DDOT": 0}, "tle": {"line1": "1 66843U 25280Y   25356.16668980 -.00132021  00000+0 -21759-2 0  9995", "line2": "2 66843  70.0002 172.5416 0003424 272.3891 251.4204 15.52557750  4418"}}, "geometry": {"type": "Point", "coordinates": [23.924240903798545, -55.460667256248186]}}, {"type": "Feature", "properties": {"norad_id": 66844, "name": "STARLINK-36073", "group": "last-30-days", "lat": -53.91462247478761, "lon": 21.961375477570297, "alt_km": 413.9803710673541, "timestamp": "2025-12-22T08:58:19.047787+00:00", "meta": {"OBJECT_NAME": "STARLINK-36073", "OBJECT_ID": "2025-280Z", "EPOCH": "2025-12-22T04:00:01.998720", "MEAN_MOTION": 15.5255737, "ECCENTRICITY": 0.0003307, "INCLINATION": 70, "RA_OF_ASC_NODE": 172.5448, "ARG_OF_PERICENTER": 274.1245, "MEAN_ANOMALY": 247.7638, "EPHEMERIS_TYPE": 0, "CLASSIFICATION_TYPE": "U", "NORAD_CAT_ID": 66844, "ELEMENT_SET_NO": 999, "REV_AT_EPOCH": 441, "BSTAR": -0.0021198, "MEAN_MOTION_DOT": -0.00128673, "MEAN_MOTION_DDOT": 0}, "tle": {"line1": "1 66844U 25280Z   25356.16668980 -.00128673  00000+0 -21198-2 0  9991", "line2": "2 66844  70.0000 172.5448 0003307 274.1245 247.7638 15.52557370  4412"}}, "geometry": {"type": "Point", "coordinates": [21.961375477570297, -53.91462247478761]}}, {"type": "Feature", "properties": {"norad_id": 66845, "name": "STARLINK-36068", "group": "last-30-days", "lat": -59.859127139401764, "lon": 30.818493299975827, "alt_km": 413.94573940974715, "timestamp": "2025-12-22T08:58:19.047799+00:00", "meta": {"OBJECT_NAME": "STARLINK-36068", "OBJECT_ID": "2025-280AA", "EPOCH": "2025-12-22T04:00:01.998720", "MEAN_MOTION": 15.52557764, "ECCENTRICITY": 0.0003313, "INCLINATION": 70.0002, "RA_OF_ASC_NODE": 172.5349, "ARG_OF_PERICENTER": 274.292, "MEAN_ANOMALY": 255.2623, "EPHEMERIS_TYPE": 0, "CLASSIFICATION_TYPE": "U", "NORAD_CAT_ID": 66845, "ELEMENT_SET_NO": 999, "REV_AT_EPOCH": 441, "BSTAR": -0.0021622, "MEAN_MOTION_DOT": -0.00131201, "MEAN_MOTION_DDOT": 0}, "tle": {"line1": "1 66845U 25280AA  25356.16668980 -.00131201  00000+0 -21622-2 0  9995", "line2": "2 66845  70.0002 172.5349 0003313 274.2920 255.2623 15.52557764  4418"}}, "geometry": {"type": "Point", "coordinates": [30.818493299975827, -59.859127139401764]}}, {"type": "Feature", "properties": {"norad_id": 66846, "name": "STARLINK-36055", "group": "last-30-days", "lat": -56.96883820140841, "lon": 26.041677054454386, "alt_km": 413.94384349078064, "timestamp": "2025-12-22T08:58:19.047824+00:00", "meta": {"OBJECT_NAME": "STARLINK-36055", "OBJECT_ID": "2025-280AB", "EPOCH": "2025-12-22T04:00:01.998720", "MEAN_MOTION": 15.52564168, "ECCENTRICITY": 0.0003329, "INCLINATION": 70.0001, "RA_OF_ASC_NODE": 172.5394, "ARG_OF_PERICENTER": 273.6654, "MEAN_ANOMALY": 252.0583, "EPHEMERIS_TYPE": 0, "CLASSIFICATION_TYPE": "U", "NORAD_CAT_ID": 66846, "ELEMENT_SET_NO": 999, "REV_AT_EPOCH": 441, "BSTAR": -0.0024118, "MEAN_MOTION_DOT": -0.00146093, "MEAN_MOTION_DDOT": 0}, "tle": {"line1": "1 66846U 25280AB  25356.16668980 -.00146093  00000+0 -24118-2 0  9994", "line2": "2 66846  70.0001 172.5394 0003329 273.6654 252.0583 15.52564168  4418"}}, "geometry": {"type": "Point", "coordinates": [26.041677054454386, -56.96883820140841]}}, {"type": "Feature", "properties": {"norad_id": 66847, "name": "STARLINK-36061", "group": "last-30-days", "lat": -58.453419649368946, "lon": 28.360619270897544, "alt_km": 413.9939010863127, "timestamp": "2025-12-22T08:58:19.047836+00:00", "meta": {"OBJECT_NAME": "STARLINK-36061", "OBJECT_ID": "2025-280AC", "EPOCH": "2025-12-22T04:00:01.998720", "MEAN_MOTION": 15.52652671, "ECCENTRICITY": 0.000301, "INCLINATION": 70, "RA_OF_ASC_NODE": 172.5371, "ARG_OF_PERICENTER": 273.3983, "MEAN_ANOMALY": 254.2115, "EPHEMERIS_TYPE": 0, "CLASSIFICATION_TYPE": "U", "NORAD_CAT_ID": 66847, "ELEMENT_SET_NO": 999, "REV_AT_EPOCH": 436, "BSTAR": -0.0042082, "MEAN_MOTION_DOT": -0.00252225, "MEAN_MOTION_DDOT": 0}, "tle": {"line1": "1 66847U 25280AC  25356.16668980 -.00252225  00000+0 -42082-2 0  9990", "line2": "2 66847  70.0000 172.5371 0003010 273.3983 254.2115 15.52652671  4368"}}, "geometry": {"type": "Point", "coordinates": [28.360619270897544, -58.453419649368946]}}, {"type": "Feature", "properties": {"norad_id": 66848, "name": "STARLINK-36091", "group": "last-30-days", "lat": -42.906307627882306, "lon": -22.311263659694532, "alt_km": 370.85281687095994, "timestamp": "2025-12-22T08:58:19.047846+00:00", "meta": {"OBJECT_NAME": "STARLINK-36091", "OBJECT_ID": "2025-281A", "EPOCH": "2025-12-22T04:00:01.998720", "MEAN_MOTION": 15.67574895, "ECCENTRICITY": 0.0001002, "INCLINATION": 43.0004, "RA_OF_ASC_NODE": 64.827, "ARG_OF_PERICENTER": 270.1862, "MEAN_ANOMALY": 272.7788, "EPHEMERIS_TYPE": 0, "CLASSIFICATION_TYPE": "U", "NORAD_CAT_ID": 66848, "ELEMENT_SET_NO": 999, "REV_AT_EPOCH": 290, "BSTAR": -0.019633, "MEAN_MOTION_DOT": -0.019449, "MEAN_MOTION_DDOT": 0}, "tle": {"line1": "1 66848U 25281A   25356.16668980 -.01944900  00000+0 -19633-1 0  9996", "line2": "2 66848  43.0004  64.8270 0001002 270.1862 272.7788 15.67574895  2900"}}, "geometry": {"type": "Point", "coordinates": [-22.311263659694532, -42.906307627882306]}}, {"type": "Feature", "properties": {"norad_id": 66849, "name": "STARLINK-36102", "group": "last-30-days", "lat": -42.78333880011239, "lon": -19.71096195834193, "alt_km": 370.86157454014574, "timestamp": "2025-12-22T08:58:19.047857+00:00", "meta": {"OBJECT_NAME": "STARLINK-36102", "OBJECT_ID": "2025-281B", "EPOCH": "2025-12-22T04:00:01.998720", "MEAN_MOTION": 15.6757874, "ECCENTRICITY": 9.77e-05, "INCLINATION": 43.0004, "RA_OF_ASC_NODE": 64.8219, "ARG_OF_PERICENTER": 269.4497, "MEAN_ANOMALY": 275.4326, "EPHEMERIS_TYPE": 0, "CLASSIFICATION_TYPE": "U", "NORAD_CAT_ID": 66849, "ELEMENT_SET_NO": 999, "REV_AT_EPOCH": 290, "BSTAR": -0.01969, "MEAN_MOTION_DOT": -0.01950091, "MEAN_MOTION_DDOT": 0}, "tle": {"line1": "1 66849U 25281B   25356.16668980 -.01950091  00000+0 -19690-1 0  9998", "line2": "2 66849  43.0004  64.8219 0000977 269.4497 275.4326 15.67578740  2900"}}, "geometry": {"type": "Point", "coordinates": [-19.71096195834193, -42.78333880011239]}}]}